satname,norad_id,inclination_deg,eccentricity,mean_motion_rev_per_day,perigee_km,apogee_km,l1,l2
STARLINK-1183,45088,53.0553,0.0001351,15.06395374,546.2901194926599,548.1613525039265,1 45088U 20006AW  25333.31655151  .00001557  00000+0  12340-3 0  9996,2 45088  53.0553 337.2119 0001351  90.4274 269.6870 15.06395374321894
STARLINK-1142,45093,53.0279,0.0008238,15.76686714,334.3014542773717,345.36998613118067,1 45093U 20006BB  25333.91670139  .00349302  00000+0  20525-2 0  9997,2 45093  53.0279 254.7597 0008238 127.3630 297.7996 15.76686714  5905
STARLINK-1152,45096,53.047,0.0004376,15.26854894,482.2177779394069,488.22458902158905,1 45096U 20006BE  25333.22329431  .00034153  00000+0  12843-2 0  9999,2 45096  53.0470 315.9865 0004376 335.0382  25.0403 15.26854894322188
STARLINK-1184,45098,53.0554,0.0001422,15.06391541,546.2526954246987,548.2222719278561,1 45098U 20006BG  25333.72937962  .00002122  00000+0  16132-3 0  9997,2 45098  53.0554 335.3585 0001422  91.0743 269.0409 15.06391541321950
STARLINK-1193,45100,53.0559,0.0001408,15.06396842,546.2461463306126,548.1963272100884,1 45100U 20006BJ  25333.72569427  .00001924  00000+0  14804-3 0  9991,2 45100  53.0559 335.3739 0001408  85.9087 274.2062 15.06396842321959
STARLINK-1143,45179,53.0519,0.0005489,15.44533179,429.0115828058442,436.4885746408663,1 45179U 20012B   25333.60725705  .00022575  00000+0  48621-3 0  9993,2 45179  53.0519  92.1515 0005489 149.7078 210.4246 15.44533179320372
STARLINK-1202,45183,53.0543,0.0001306,15.06405065,546.2915859919631,548.1004829805706,1 45183U 20012F   25333.72200341  .00001961  00000+0  15048-3 0  9998,2 45183  53.0543 135.3933 0001306  93.9554 266.1584 15.06405065319776
STARLINK-1216,45185,53.0536,0.0001202,15.06399487,546.3807031241877,548.0455572954897,1 45185U 20012H   25333.71462524  .00000681  00000+0  64574-4 0  9999,2 45185  53.0536 135.4226 0001202  90.9765 269.1362 15.06399487319713
STARLINK-1225,45187,53.0538,0.0001234,15.06403033,546.3476753807463,548.0568491106687,1 45187U 20012K   25333.73305167  .00000567  00000+0  56925-4 0  9996,2 45187  53.0538 135.3404 0001234  90.3102 269.8029 15.06403033319763
STARLINK-1230,45189,53.0547,0.0001486,15.06402415,546.1750506251601,548.2332620168181,1 45189U 20012M   25333.73674005  .00000016  00000+0  19967-4 0  9992,2 45189  53.0547 135.3275 0001486  94.4299 265.6860 15.06402415316994
STARLINK-1234,45190,53.0513,0.0003305,15.40892828,441.2184399312782,445.7275241294001,1 45190U 20012N   25333.58669419  .00105604  00000+0  25058-2 0  9995,2 45190  53.0513  86.4751 0003305 296.3608  63.7057 15.40892828320341
STARLINK-1269,45197,53.0538,0.0001307,15.06391724,546.3317764307312,548.1420691741514,1 45197U 20012V   25333.74780439 -.00000864  00000+0 -39116-4 0  9992,2 45197  53.0538 135.2755 0001307  92.1766 267.9372 15.06391724319740
STARLINK-1154,45198,53.0543,9.54e-05,15.06404204,546.5379962904963,547.8593503369639,1 45198U 20012W   25333.67223404  .00001140  00000+0  95405-4 0  9998,2 45198  53.0543 115.6137 0000954  58.5075 301.6007 15.06404204319984
STARLINK-1199,45201,53.0538,0.0001283,15.06400346,546.3219754143838,548.0990195822424,1 45201U 20012Z   25333.68329405  .00000288  00000+0  38243-4 0  9991,2 45201  53.0538 115.5659 0001283  88.1040 272.0096 15.06400346320049
STARLINK-1209,45206,53.052,0.0003726,15.34470419,459.9451290119814,465.0427671945072,1 45206U 20012AE  25333.82818769  .00090489  00000+0  26507-2 0  9998,2 45206  53.0520  87.2338 0003726 308.2429  51.8237 15.34470419319503
STARLINK-1210,45207,53.0214,0.0004163,15.64349306,372.2994174698406,377.9221715835629,1 45207U 20012AF  25333.91670139  .00115110  00000+0  11693-2 0  9995,2 45207  53.0214  42.9696 0004163 142.8629 290.5658 15.64349306  5941
STARLINK-1231,45212,53.05,0.0006258,15.1419082,519.1172506750017,527.7552597612321,1 45212U 20012AL  25333.76488764  .00041409  00000+0  22450-2 0  9997,2 45212  53.0500 112.1314 0006258 133.4614 226.6899 15.14190820320058
STARLINK-1271,45217,53.055,0.0001387,15.06400318,546.2500376044436,548.1711290240546,1 45217U 20012AR  25333.66855225  .00000943  00000+0  82220-4 0  9992,2 45217  53.0550 115.6311 0001387  84.5487 275.5660 15.06400318320040
STARLINK-1191,45222,53.0549,0.0001433,15.06393711,546.2384276741013,548.2232380950063,1 45222U 20012AW  25333.61142037 -.00001073  00000+0 -53132-4 0  9990,2 45222  53.0549  95.8859 0001433  99.8308 260.2843 15.06393711320315
STARLINK-1212,45223,53.0537,0.0001439,15.06380381,546.2751216900215,548.2682543104283,1 45223U 20012AX  25333.76264603 -.00001371  00000+0 -73173-4 0  9999,2 45223  53.0537  95.8636 0001439  94.1874 265.9279 15.06380381320334
STARLINK-1215,45225,53.0548,0.0001318,15.06400889,546.2960727018299,548.1215938634832,1 45225U 20012AZ  25333.65195823  .00002029  00000+0  15506-3 0  9990,2 45225  53.0548  95.7037 0001318  87.2196 272.8944 15.06400889320273
STARLINK-1221,45227,53.0683,0.0004988,15.37938339,448.7997438857283,455.6136947801342,1 45227U 20012BB  25333.31476921  .00014384  00000+0  38947-3 0  9997,2 45227  53.0683  23.8126 0004988  58.5682 301.5808 15.37938339321240
STARLINK-1222,45228,53.0536,8.24e-05,15.10984446,532.6269350361781,533.7659227852628,1 45228U 20012BC  25333.91670139 -.00007533  00000+0 -42918-3 0  9994,2 45228  53.0536  94.4132 0000824  57.9156 171.8922 15.10984446  5787
STARLINK-1226,45229,53.0554,0.0001222,15.06403202,546.355467892281,548.0480206813854,1 45229U 20012BD  25333.58192478  .00001299  00000+0  10606-3 0  9993,2 45229  53.0554  96.0169 0001222  89.0465 271.0664 15.06403202320202
STARLINK-1227,45230,53.0539,0.0001341,15.06402165,546.2762341812304,548.1336108848527,1 45230U 20012BE  25333.64459235  .00000931  00000+0  81400-4 0  9992,2 45230  53.0539  95.7375 0001341 113.0060 247.1070 15.06402165320339
STARLINK-1246,45235,53.0548,0.0001398,15.06399029,546.2463697705853,548.1826980594669,1 45235U 20012BK  25333.72569841 -.00002096  00000+0 -12185-3 0  9990,2 45235  53.0548 135.3732 0001398 128.5392 231.5722 15.06399029319796
STARLINK-1270,45237,53.0545,0.0001389,15.06403069,546.2402223030622,548.1640815194642,1 45237U 20012BM  25333.59666737 -.00002011  00000+0 -11612-3 0  9990,2 45237  53.0545  95.9521 0001389  94.0759 266.0389 15.06403069320318
STARLINK-1279,45360,53.0504,0.0009119,15.38853119,443.27343814779306,455.7256817057878,1 45360U 20019A   25333.85221469  .00065681  00000+0  16774-2 0  9995,2 45360  53.0504 215.9980 0009119 106.3026 253.8981 15.38853119315211
STARLINK-1301,45361,53.0507,0.0008563,15.41630506,435.45721077355483,447.1361729142063,1 45361U 20019B   25333.83098830  .00066567  00000+0  15512-2 0  9991,2 45361  53.0507 225.2829 0008563 100.7029 259.4940 15.41630506315094
STARLINK-1306,45362,53.0405,0.0005233,15.81529313,322.6068793528957,329.62354972063076,1 45362U 20019C   25333.91670139  .00156390  00000+0  75769-3 0  9994,2 45362  53.0405 207.3392 0005233  82.3628 358.6960 15.81529313  6031
STARLINK-1262,45366,53.056,0.000157,15.06391495,546.1503408449043,548.3249084770468,1 45366U 20019G   25333.11014393  .00000308  00000+0  39586-4 0  9999,2 45366  53.0560 258.1333 0001570  94.5365 265.5803 15.06391495314577
STARLINK-1273,45367,53.0559,0.000169,15.06404569,546.0271731069934,548.3679361864642,1 45367U 20019H   25333.79572073  .00004272  00000+0  30549-3 0  9991,2 45367  53.0559 255.0557 0001690  97.6875 262.4306 15.06404569314675
STARLINK-1276,45368,53.0546,0.0001625,15.06394578,546.1028037961687,548.3535474782511,1 45368U 20019J   25333.16912135  .00001199  00000+0  99375-4 0  9998,2 45368  53.0546 257.8768 0001625  89.4607 270.6569 15.06394578314586
STARLINK-1277,45369,53.0537,0.0001552,15.06401395,546.1324690348538,548.2820959001328,1 45369U 20019K   25333.09547890  .00003178  00000+0  23213-3 0  9999,2 45369  53.0537 258.8305 0001552  94.9197 265.1970 15.06401395314568
STARLINK-1281,45370,53.0551,0.000172,15.06399437,546.0221232039748,548.4044437014827,1 45370U 20019L   25333.02537297  .00003532  00000+0  25588-3 0  9995,2 45370  53.0551 258.5197 0001720  97.5091 262.6093 15.06399437314562
STARLINK-1300,45374,53.0531,0.0002087,15.06406066,545.7476502203026,548.6382829483537,1 45374U 20019Q   25333.51191389  .00010929  00000+0  75132-3 0  9999,2 45374  53.0531 256.3327 0002087  90.2722 269.8506 15.06406066314636
STARLINK-1302,45375,53.0557,0.0001974,15.0640033,545.843482930306,548.5776101416777,1 45375U 20019R   25333.52666374  .00006796  00000+0  47470-3 0  9993,2 45375  53.0557 256.2676 0001974  89.2697 270.8518 15.06400330314637
STARLINK-1304,45376,53.0524,0.0001159,15.06394592,546.4254829100864,548.0307825478521,1 45376U 20019S   25333.21335572  .00003717  00000+0  26832-3 0  9992,2 45376  53.0524 257.6720 0001159  81.3415 278.7705 15.06394592314584
STARLINK-1305,45377,53.0524,0.0007809,15.35444109,454.2620967706598,464.9412770518775,1 45377U 20019T   25333.75914108  .00050129  00000+0  14351-2 0  9991,2 45377  53.0524 247.3839 0007809  96.5861 263.6030 15.35444109314781
STARLINK-1319,45379,53.0536,0.000663,15.40260812,440.8149663486938,449.8628954330561,1 45379U 20019V   25333.75689457  .00060592  00000+0  14802-2 0  9995,2 45379  53.0536 248.8489 0006630 102.7874 257.3871 15.40260812314762
STARLINK-1266,45383,53.055,0.0001531,15.06400405,546.1500459977033,548.2705873460682,1 45383U 20019Z   25333.69805734  .00005204  00000+0  36802-3 0  9995,2 45383  53.0550 235.5005 0001531  84.9075 275.2089 15.06400405314934
STARLINK-1267,45384,53.0535,0.0001551,15.0640018,546.1368847884869,548.2851277400287,1 45384U 20019AA  25333.15262399  .00006156  00000+0  43179-3 0  9993,2 45384  53.0535 238.6051 0001551  88.8498 271.2669 15.06400180314847
STARLINK-1272,45386,53.0523,0.0008619,15.3851618,444.6107710866754,456.38196929020705,1 45386U 20019AC  25333.83929856  .00067595  00000+0  17448-2 0  9991,2 45386  53.0523 226.6011 0008619 106.6306 253.5644 15.38516180315073
